[{"OBJECT_NAME":"STARLINK-34129","OBJECT_ID":"2025-111R","EPOCH":"2026-03-09T10:42:17.556192","MEAN_MOTION":15.27593456,"ECCENTRICITY":0.00014672,"INCLINATION":43.0005,"RA_OF_ASC_NODE":79.4557,"ARG_OF_PERICENTER":268.7528,"MEAN_ANOMALY":91.3156,"EPHEMERIS_TYPE":0,"CLASSIFICATION_TYPE":"U","NORAD_CAT_ID":64138,"ELEMENT_SET_NO":999,"REV_AT_EPOCH":4547,"BSTAR":0.00098116297,"MEAN_MOTION_DOT":0.00026847,"MEAN_MOTION_DDOT":0},{"OBJECT_NAME":"EXPLORER 7","OBJECT_ID":"1959-009A","EPOCH":"2026-03-09T22:10:28.426368","MEAN_MOTION":15.26652664,"ECCENTRICITY":0.00808181,"INCLINATION":50.2405,"RA_OF_ASC_NODE":230.2318,"ARG_OF_PERICENTER":85.1115,"MEAN_ANOMALY":275.9066,"EPHEMERIS_TYPE":0,"CLASSIFICATION_TYPE":"U","NORAD_CAT_ID":22,"ELEMENT_SET_NO":999,"REV_AT_EPOCH":78517,"BSTAR":0.00064628265,"MEAN_MOTION_DOT":0.00018598,"MEAN_MOTION_DDOT":0}]
